{"type": "FeatureCollection", "features": [ {"type": "Feature", "properties": {"norad_id": 61182, "name": "GSAT0232 (GALILEO 32)", "group": "gnss", "lat": -15.114194270225614, "lon": 57.00338812004773, "alt_km": 23218.860911206943, "timestamp": "2025-12-21T20:41:08.208537+00:00", "meta": {"OBJECT_NAME": "GSAT0232 (GALILEO 32)", "OBJECT_ID": "2024-167A", "EPOCH": "2025-12-21T05:44:27.225600", "MEAN_MOTION": 1.70473624, "ECCENTRICITY": 0.0001881, "INCLINATION": 55.2384, "RA_OF_ASC_NODE": 226.1977, "ARG_OF_PERICENTER": 205.7333, "MEAN_ANOMALY": 330.6739, "EPHEMERIS_TYPE": 0, "CLASSIFICATION_TYPE": "U", "NORAD_CAT_ID": 61182, "ELEMENT_SET_NO": 999, "REV_AT_EPOCH": 784, "BSTAR": 0, "MEAN_MOTION_DOT": 7.3e-07, "MEAN_MOTION_DDOT": 0}, "tle": {"line1": "1 61182U 24167A   25355.23920400  .00000073  00000+0  00000+0 0  9996", "line2": "2 61182  55.2384 226.1977 0001881 205.7333 330.6739  1.70473624  7846"}}, "geometry": {"type": "Point", "coordinates": [57.00338812004773, -15.114194270225614]}}, {"type": "Feature", "properties": {"norad_id": 61183, "name": "GSAT0226 (GALILEO 31)", "group": "gnss", "lat": -38.22589112509216, "lon": -166.9476252496683, "alt_km": 23229.88778349517, "timestamp": "2025-12-21T20:41:08.208547+00:00", "meta": {"OBJECT_NAME": "GSAT0226 (GALILEO 31)", "OBJECT_ID": "2024-167B", "EPOCH": "2025-12-21T00:56:32.993664", "MEAN_MOTION": 1.70473742, "ECCENTRICITY": 0.00011348, "INCLINATION": 55.237, "RA_OF_ASC_NODE": 226.2086, "ARG_OF_PERICENTER": 107.254, "MEAN_ANOMALY": 59.1101, "EPHEMERIS_TYPE": 0, "CLASSIFICATION_TYPE": "U", "NORAD_CAT_ID": 61183, "ELEMENT_SET_NO": 999, "REV_AT_EPOCH": 781, "BSTAR": 0, "MEAN_MOTION_DOT": 7.3e-07, "MEAN_MOTION_DDOT": 0}, "tle": {"line1": "1 61183U 24167B   25355.03927076  .00000073  00000+0  00000+0 0  9991", "line2": "2 61183  55.2370 226.2086 0001134 107.2540  59.1101  1.70473742  7815"}}, "geometry": {"type": "Point", "coordinates": [-166.9476252496683, -38.22589112509216]}}, {"type": "Feature", "properties": {"norad_id": 61186, "name": "BEIDOU-3 M25 (C47)", "group": "gnss", "lat": 54.636415247118485, "lon": 39.78019411762005, "alt_km": 21535.11783553762, "timestamp": "2025-12-21T20:41:08.208562+00:00", "meta": {"OBJECT_NAME": "BEIDOU-3 M25 (C47)", "OBJECT_ID": "2024-168B", "EPOCH": "2025-12-21T10:54:12.559392", "MEAN_MOTION": 1.86230226, "ECCENTRICITY": 0.00054533, "INCLINATION": 54.6344, "RA_OF_ASC_NODE": 308.4188, "ARG_OF_PERICENTER": 299.6756, "MEAN_ANOMALY": 237.8086, "EPHEMERIS_TYPE": 0, "CLASSIFICATION_TYPE": "U", "NORAD_CAT_ID": 61186, "ELEMENT_SET_NO": 999, "REV_AT_EPOCH": 847, "BSTAR": 0, "MEAN_MOTION_DOT": -6.3e-07, "MEAN_MOTION_DDOT": 0}, "tle": {"line1": "1 61186U 24168B   25355.45431203 -.00000063  00000+0  00000+0 0  9993", "line2": "2 61186  54.6344 308.4188 0005453 299.6756 237.8086  1.86230226  8476"}}, "geometry": {"type": "Point", "coordinates": [39.78019411762005, 54.636415247118485]}}, {"type": "Feature", "properties": {"norad_id": 61187, "name": "BEIDOU-3 M27 (C49)", "group": "gnss", "lat": -35.721106233638835, "lon": 159.05005512489515, "alt_km": 21535.391870093557, "timestamp": "2025-12-21T20:41:08.208573+00:00", "meta": {"OBJECT_NAME": "BEIDOU-3 M27 (C49)", "OBJECT_ID": "2024-168C", "EPOCH": "2025-12-21T06:06:47.585952", "MEAN_MOTION": 1.86230383, "ECCENTRICITY": 0.0002534, "INCLINATION": 54.63, "RA_OF_ASC_NODE": 308.4093, "ARG_OF_PERICENTER": 340.0926, "MEAN_ANOMALY": 198.5211, "EPHEMERIS_TYPE": 0, "CLASSIFICATION_TYPE": "U", "NORAD_CAT_ID": 61187, "ELEMENT_SET_NO": 999, "REV_AT_EPOCH": 594, "BSTAR": 0, "MEAN_MOTION_DOT": -6.4e-07, "MEAN_MOTION_DDOT": 0}, "tle": {"line1": "1 61187U 24168C   25355.25471743 -.00000064  00000+0  00000+0 0  9996", "line2": "2 61187  54.6300 308.4093 0002534 340.0926 198.5211  1.86230383  5947"}}, "geometry": {"type": "Point", "coordinates": [159.05005512489515, -35.721106233638835]}}, {"type": "Feature", "properties": {"norad_id": 62339, "name": "GPS BIII-7  (PRN 01)", "group": "gnss", "lat": 6.085946598892099, "lon": -14.345160618132999, "alt_km": 20150.477765561394, "timestamp": "2025-12-21T20:41:08.208585+00:00", "meta": {"OBJECT_NAME": "GPS BIII-7  (PRN 01)", "OBJECT_ID": "2024-242A", "EPOCH": "2025-12-18T08:46:28.895808", "MEAN_MOTION": 2.00568182, "ECCENTRICITY": 0.0012509, "INCLINATION": 54.922, "RA_OF_ASC_NODE": 341.5124, "ARG_OF_PERICENTER": 345.6877, "MEAN_ANOMALY": 17.1618, "EPHEMERIS_TYPE": 0, "CLASSIFICATION_TYPE": "U", "NORAD_CAT_ID": 62339, "ELEMENT_SET_NO": 999, "REV_AT_EPOCH": 763, "BSTAR": 0, "MEAN_MOTION_DOT": -8.5e-07, "MEAN_MOTION_DDOT": 0}, "tle": {"line1": "1 62339U 24242A   25352.36561222 -.00000085  00000+0  00000+0 0  9993", "line2": "2 62339  54.9220 341.5124 0012509 345.6877  17.1618  2.00568182  7636"}}, "geometry": {"type": "Point", "coordinates": [-14.345160618132999, 6.085946598892099]}}, {"type": "Feature", "properties": {"norad_id": 62850, "name": "NVS-02 (IRNSS-1K)", "group": "gnss", "lat": -3.544495959894426, "lon": 153.67107207324938, "alt_km": 29834.460910468424, "timestamp": "2025-12-21T20:41:08.208595+00:00", "meta": {"OBJECT_NAME": "NVS-02 (IRNSS-1K)", "OBJECT_ID": "2025-020A", "EPOCH": "2025-12-21T06:41:43.125504", "MEAN_MOTION": 2.17600556, "ECCENTRICITY": 0.73473428, "INCLINATION": 20.9628, "RA_OF_ASC_NODE": 324.5689, "ARG_OF_PERICENTER": 31.7684, "MEAN_ANOMALY": 356.5401, "EPHEMERIS_TYPE": 0, "CLASSIFICATION_TYPE": "U", "NORAD_CAT_ID": 62850, "ELEMENT_SET_NO": 999, "REV_AT_EPOCH": 710, "BSTAR": 0.00014712322, "MEAN_MOTION_DOT": 8.4e-07, "MEAN_MOTION_DDOT": 0}, "tle": {"line1": "1 62850U 25020A   25355.27897136  .00000084  00000+0  14712-3 0  9992", "line2": "2 62850  20.9628 324.5689 7347342  31.7684 356.5401  2.17600556  7100"}}, "geometry": {"type": "Point", "coordinates": [153.67107207324938, -3.544495959894426]}}, {"type": "Feature", "properties": {"norad_id": 62876, "name": "QZS-6 (QZSS/PRN 200)", "group": "gnss", "lat": 0.06121704431330526, "lon": 131.48771272225852, "alt_km": 35791.44164439342, "timestamp": "2025-12-21T20:41:08.208606+00:00", "meta": {"OBJECT_NAME": "QZS-6 (QZSS/PRN 200)", "OBJECT_ID": "2025-023A", "EPOCH": "2025-12-21T11:55:02.610336", "MEAN_MOTION": 1.0027204, "ECCENTRICITY": 0.00015008, "INCLINATION": 0.0512, "RA_OF_ASC_NODE": 70.3609, "ARG_OF_PERICENTER": 209.4856, "MEAN_ANOMALY": 79.7745, "EPHEMERIS_TYPE": 0, "CLASSIFICATION_TYPE": "U", "NORAD_CAT_ID": 62876, "ELEMENT_SET_NO": 999, "REV_AT_EPOCH": 317, "BSTAR": 0, "MEAN_MOTION_DOT": -2.11e-06, "MEAN_MOTION_DDOT": 0}, "tle": {"line1": "1 62876U 25023A   25355.49655799 -.00000211  00000+0  00000+0 0  9998", "line2": "2 62876   0.0512  70.3609 0001500 209.4856  79.7745  1.00272040  3170"}}, "geometry": {"type": "Point", "coordinates": [131.48771272225852, 0.06121704431330526]}}, {"type": "Feature", "properties": {"norad_id": 63130, "name": "COSMOS 2584 (704K)", "group": "gnss", "lat": 62.177560898840674, "lon": 140.90617494181956, "alt_km": 19138.602406493632, "timestamp": "2025-12-21T20:41:08.208616+00:00", "meta": {"OBJECT_NAME": "COSMOS 2584 (704K)", "OBJECT_ID": "2025-042A", "EPOCH": "2025-12-21T07:00:00.966240", "MEAN_MOTION": 2.13103074, "ECCENTRICITY": 0.00077364, "INCLINATION": 64.9804, "RA_OF_ASC_NODE": 78.8547, "ARG_OF_PERICENTER": 219.241, "MEAN_ANOMALY": 140.7412, "EPHEMERIS_TYPE": 0, "CLASSIFICATION_TYPE": "U", "NORAD_CAT_ID": 63130, "ELEMENT_SET_NO": 999, "REV_AT_EPOCH": 625, "BSTAR": 0, "MEAN_MOTION_DOT": -1.1e-07, "MEAN_MOTION_DDOT": 0}, "tle": {"line1": "1 63130U 25042A   25355.29167785 -.00000011  00000+0  00000+0 0  9992", "line2": "2 63130  64.9804  78.8547 0007736 219.2410 140.7412  2.13103074  6250"}}, "geometry": {"type": "Point", "coordinates": [140.90617494181956, 62.177560898840674]}}, {"type": "Feature", "properties": {"norad_id": 64202, "name": "GPS BIII-8  (PRN 21)", "group": "gnss", "lat": -13.46099205517665, "lon": -132.0982386599579, "alt_km": 20190.807216317873, "timestamp": "2025-12-21T20:41:08.208626+00:00", "meta": {"OBJECT_NAME": "GPS BIII-8  (PRN 21)", "OBJECT_ID": "2025-116A", "EPOCH": "2025-12-21T05:27:12.746304", "MEAN_MOTION": 2.00557871, "ECCENTRICITY": 0.0005801, "INCLINATION": 55.1115, "RA_OF_ASC_NODE": 38.2986, "ARG_OF_PERICENTER": 309.9231, "MEAN_ANOMALY": 148.3902, "EPHEMERIS_TYPE": 0, "CLASSIFICATION_TYPE": "U", "NORAD_CAT_ID": 64202, "ELEMENT_SET_NO": 999, "REV_AT_EPOCH": 430, "BSTAR": 0, "MEAN_MOTION_DOT": -5.6e-07, "MEAN_MOTION_DDOT": 0}, "tle": {"line1": "1 64202U 25116A   25355.22723086 -.00000056  00000+0  00000+0 0  9999", "line2": "2 64202  55.1115  38.2986 0005801 309.9231 148.3902  2.00557871  4300"}}, "geometry": {"type": "Point", "coordinates": [-132.0982386599579, -13.46099205517665]}}, {"type": "Feature", "properties": {"norad_id": 65590, "name": "COSMOS 2596 (708K)", "group": "gnss", "lat": -14.206065442160785, "lon": 148.001708507864, "alt_km": 19145.443052997987, "timestamp": "2025-12-21T20:41:08.208636+00:00", "meta": {"OBJECT_NAME": "COSMOS 2596 (708K)", "OBJECT_ID": "2025-206B", "EPOCH": "2025-12-21T08:11:49.978752", "MEAN_MOTION": 2.13100442, "ECCENTRICITY": 0.00140796, "INCLINATION": 64.7397, "RA_OF_ASC_NODE": 321.1762, "ARG_OF_PERICENTER": 307.1691, "MEAN_ANOMALY": 209.4715, "EPHEMERIS_TYPE": 0, "CLASSIFICATION_TYPE": "U", "NORAD_CAT_ID": 65590, "ELEMENT_SET_NO": 999, "REV_AT_EPOCH": 212, "BSTAR": 0, "MEAN_MOTION_DOT": -4.8e-07, "MEAN_MOTION_DDOT": 0}, "tle": {"line1": "1 65590U 25206B   25355.34155068 -.00000048  00000+0  00000+0 0  9993", "line2": "2 65590  64.7397 321.1762 0014079 307.1691 209.4715  2.13100442  2123"}}, "geometry": {"type": "Point", "coordinates": [148.001708507864, -14.206065442160785]}}]}